$$SOE
2460154.500000000, A.D. 2023-Jul-29 00:00:00.0000, 7.394848927332502E+06, 5.007447451725245E+08, -5.940610584513383E+07,
2460161.500000000, A.D. 2023-Aug-05 00:00:00.0000, -2.119256470148218E+06, 5.011248061409579E+08, -5.878774326484342E+07,
2460168.500000000, A.D. 2023-Aug-12 00:00:00.0000, -1.163253422572625E+07, 5.013154447658191E+08, -5.814715494315529E+07,
2460175.500000000, A.D. 2023-Aug-19 00:00:00.0000, -2.114139875882113E+07, 5.013168634591600E+08, -5.748461501405990E+07,
2460182.500000000, A.D. 2023-Aug-26 00:00:00.0000, -3.064227576482901E+07, 5.011293233060201E+08, -5.680040377635545E+07,
2460189.500000000, A.D. 2023-Sep-02 00:00:00.0000, -4.013160286873651E+07, 5.007531436691598E+08, -5.609480759929183E+07,
2460196.500000000, A.D. 2023-Sep-09 00:00:00.0000, -4.960583025330515E+07, 5.001887016888888E+08, -5.536811884125468E+07,
2460203.500000000, A.D. 2023-Sep-16 00:00:00.0000, -5.906142109432706E+07, 4.994364316201507E+08, -5.462063580157769E+07,
2460210.500000000, A.D. 2023-Sep-23 00:00:00.0000, -6.849485138764076E+07, 4.984968242939805E+08, -5.385266272016558E+07,
2460217.500000000, A.D. 2023-Sep-30 00:00:00.0000, -7.790260950853604E+07, 4.973704278950168E+08, -5.306450969654879E+07,
2460224.500000000, A.D. 2023-Oct-07 00:00:00.0000, -8.728119785736875E+07, 4.960578495129920E+08, -5.225649235688549E+07,
2460231.500000000, A.D. 2023-Oct-14 00:00:00.0000, -9.662713555171417E+07, 4.945597541536244E+08, -5.142893163446140E+07,
2460238.500000000, A.D. 2023-Oct-21 00:00:00.0000, -1.059369589385710E+08, 4.928768628114886E+08, -5.058215382848638E+07,
2460245.500000000, A.D. 2023-Oct-28 00:00:00.0000, -1.152072213518783E+08, 4.910099518669765E+08, -4.971649062606561E+07,
2460252.500000000, A.D. 2023-Nov-04 00:00:00.0000, -1.244344933649208E+08, 4.889598530372906E+08, -4.883227903545105E+07,
2460259.500000000, A.D. 2023-Nov-11 00:00:00.0000, -1.336153633599474E+08, 4.867274532806683E+08, -4.792986129533294E+07,
2460266.500000000, A.D. 2023-Nov-18 00:00:00.0000, -1.427464381958374E+08, 4.843136945883196E+08, -4.700958478495541E+07,
2460273.500000000, A.D. 2023-Nov-25 00:00:00.0000, -1.518243439018541E+08, 4.817195736853793E+08, -4.607180193932196E+07,
2460280.500000000, A.D. 2023-Dec-02 00:00:00.0000, -1.608457263707794E+08, 4.789461416288359E+08, -4.511687017259127E+07,
2460287.500000000, A.D. 2023-Dec-09 00:00:00.0000, -1.698072519753760E+08, 4.759945032435357E+08, -4.414515182149100E+07,
2460294.500000000, A.D. 2023-Dec-16 00:00:00.0000, -1.787056078221718E+08, 4.728658164095848E+08, -4.315701413421282E+07,
2460301.500000000, A.D. 2023-Dec-23 00:00:00.0000, -1.875375012952411E+08, 4.695612918897443E+08, -4.215282928084007E+07,
2460308.500000000, A.D. 2023-Dec-30 00:00:00.0000, -1.962996602307878E+08, 4.660821947476088E+08, -4.113297417704022E+07,
2460315.500000000, A.D. 2024-Jan-06 00:00:00.0000, -2.049888354940743E+08, 4.624298449964683E+08, -4.009783015158913E+07,
2460322.500000000, A.D. 2024-Jan-13 00:00:00.0000, -2.136018027850229E+08, 4.586056156696953E+08, -3.904778289600852E+07,
2460329.500000000, A.D. 2024-Jan-20 00:00:00.0000, -2.221353624503814E+08, 4.546109313957773E+08, -3.798322255639800E+07,
2460336.500000000, A.D. 2024-Jan-27 00:00:00.0000, -2.305863393322532E+08, 4.504472681305664E+08, -3.690454372846560E+07,
2460343.500000000, A.D. 2024-Feb-03 00:00:00.0000, -2.389515830816086E+08, 4.461161530975495E+08, -3.581214539411668E+07,
2460350.500000000, A.D. 2024-Feb-10 00:00:00.0000, -2.472279686601360E+08, 4.416191646440114E+08, -3.470643084886563E+07,
2460357.500000000, A.D. 2024-Feb-17 00:00:00.0000, -2.554123968928035E+08, 4.369579320204462E+08, -3.358780763224125E+07,
2460364.500000000, A.D. 2024-Feb-24 00:00:00.0000, -2.635017950362151E+08, 4.321341350978330E+08, -3.245668746340594E+07,
2460371.500000000, A.D. 2024-Mar-02 00:00:00.0000, -2.714931173342226E+08, 4.271495039902335E+08, -3.131348618743016E+07,
2460378.500000000, A.D. 2024-Mar-09 00:00:00.0000, -2.793833454225796E+08, 4.220058185197606E+08, -3.015862375012353E+07,
2460385.500000000, A.D. 2024-Mar-16 00:00:00.0000, -2.871694881878376E+08, 4.167049077208627E+08, -2.899252422151631E+07,
2460392.500000000, A.D. 2024-Mar-23 00:00:00.0000, -2.948485811848575E+08, 4.112486504926664E+08, -2.781561576783152E+07,
2460399.500000000, A.D. 2024-Mar-30 00:00:00.0000, -3.024176878550567E+08, 4.056389773730262E+08, -2.662833036867736E+07,
2460406.500000000, A.D. 2024-Apr-06 00:00:00.0000, -3.098739022888595E+08, 3.998778700667466E+08, -2.543110357806683E+07,
2460413.500000000, A.D. 2024-Apr-13 00:00:00.0000, -3.172143499805518E+08, 3.939673595621959E+08, -2.422437458613455E+07,
2460420.500000000, A.D. 2024-Apr-20 00:00:00.0000, -3.244361875292958E+08, 3.879095255117502E+08, -2.300858627535127E+07,
2460427.500000000, A.D. 2024-Apr-27 00:00:00.0000, -3.315366028045446E+08, 3.817064963151901E+08, -2.178418517807741E+07,
2460434.500000000, A.D. 2024-May-04 00:00:00.0000, -3.385128154880728E+08, 3.753604492025273E+08, -2.055162140085910E+07,
2460441.500000000, A.D. 2024-May-11 00:00:00.0000, -3.453620777544845E+08, 3.688736102138210E+08, -1.931134854538062E+07,
2460448.500000000, A.D. 2024-May-18 00:00:00.0000, -3.520816750086685E+08, 3.622482540970522E+08, -1.806382363155022E+07,
2460455.500000000, A.D. 2024-May-25 00:00:00.0000, -3.586689266560191E+08, 3.554867041165327E+08, -1.680950702528036E+07,
2460462.500000000, A.D. 2024-Jun-01 00:00:00.0000, -3.651211868461187E+08, 3.485913317140629E+08, -1.554886238082436E+07,
2460469.500000000, A.D. 2024-Jun-08 00:00:00.0000, -3.714358449440455E+08, 3.415645559994851E+08, -1.428235662179101E+07,
2460476.500000000, A.D. 2024-Jun-15 00:00:00.0000, -3.776103253303811E+08, 3.344088436151912E+08, -1.301045995256445E+07,
2460483.500000000, A.D. 2024-Jun-22 00:00:00.0000, -3.836420875362453E+08, 3.271267101494052E+08, -1.173364571158625E+07,
2460490.500000000, A.D. 2024-Jun-29 00:00:00.0000, -3.895286288362631E+08, 3.197207212781441E+08, -1.045239002051771E+07,
2460497.500000000, A.D. 2024-Jul-06 00:00:00.0000, -3.952674866536459E+08, 3.121934911652090E+08, -9.167171673451155E+06,
2460504.500000000, A.D. 2024-Jul-13 00:00:00.0000, -4.008562388265246E+08, 3.045476809424461E+08, -7.878472213594273E+06,
2460511.500000000, A.D. 2024-Jul-20 00:00:00.0000, -4.062925037214488E+08, 2.967859984173526E+08, -6.586775921179265E+06,
2460518.500000000, A.D. 2024-Jul-27 00:00:00.0000, -4.115739408501388E+08, 2.889111980477924E+08, -5.292569730753794E+06,
2460525.500000000, A.D. 2024-Aug-03 00:00:00.0000, -4.166982517161825E+08, 2.809260808073627E+08, -3.996343133404776E+06,
2460532.500000000, A.D. 2024-Aug-10 00:00:00.0000, -4.216631807263508E+08, 2.728334939352263E+08, -2.698588079476163E+06,
2460539.500000000, A.D. 2024-Aug-17 00:00:00.0000, -4.264665161204817E+08, 2.646363305911828E+08, -1.399798884493560E+06,
2460546.500000000, A.D. 2024-Aug-24 00:00:00.0000, -4.311060908934323E+08, 2.563375293936738E+08, -1.004721428994834E+05,
2460553.500000000, A.D. 2024-Aug-31 00:00:00.0000, -4.355797835942454E+08, 2.479400737795600E+08, 1.198893334557608E+06,
2460560.500000000, A.D. 2024-Sep-07 00:00:00.0000, -4.398855186370734E+08, 2.394469913121030E+08, 2.497796536433235E+06,
2460567.500000000, A.D. 2024-Sep-14 00:00:00.0000, -4.440212660383002E+08, 2.308613539324514E+08, 3.795734292666018E+06,
2460574.500000000, A.D. 2024-Sep-21 00:00:00.0000, -4.479850426089808E+08, 2.221862795663081E+08, 5.092201562817618E+06,
2460581.500000000, A.D. 2024-Sep-28 00:00:00.0000, -4.517749150907907E+08, 2.134249318580058E+08, 6.386691751311451E+06,
2460588.500000000, A.D. 2024-Oct-05 00:00:00.0000, -4.553890015644857E+08, 2.045805180332941E+08, 7.678696713319525E+06,
2460595.500000000, A.D. 2024-Oct-12 00:00:00.0000, -4.588254714898598E+08, 1.956562878686711E+08, 8.967706728078872E+06,
2460602.500000000, A.D. 2024-Oct-19 00:00:00.0000, -4.620825461287305E+08, 1.866555334945760E+08, 1.025321057810569E+07,
2460609.500000000, A.D. 2024-Oct-26 00:00:00.0000, -4.651584993840428E+08, 1.775815892305094E+08, 1.153469567181278E+07,
2460616.500000000, A.D. 2024-Nov-02 00:00:00.0000, -4.680516587974654E+08, 1.684378313031696E+08, 1.281164817394027E+07,
2460623.500000000, A.D. 2024-Nov-09 00:00:00.0000, -4.707604066082706E+08, 1.592276774674257E+08, 1.408355313680771E+07,
2460630.500000000, A.D. 2024-Nov-16 00:00:00.0000, -4.732831808470174E+08, 1.499545865294008E+08, 1.534989463021307E+07,
2460637.500000000, A.D. 2024-Nov-23 00:00:00.0000, -4.756184764165832E+08, 1.406220577207677E+08, 1.661015586178436E+07,
2460644.500000000, A.D. 2024-Nov-30 00:00:00.0000, -4.777648459516265E+08, 1.312336298806227E+08, 1.786381926539178E+07,
2460651.500000000, A.D. 2024-Dec-07 00:00:00.0000, -4.797209000362711E+08, 1.217928808644455E+08, 1.911036655373896E+07,
2460658.500000000, A.D. 2024-Dec-14 00:00:00.0000, -4.814853074678822E+08, 1.123034284026740E+08, 2.034927889853021E+07,
2460665.500000000, A.D. 2024-Dec-21 00:00:00.0000, -4.830567978856655E+08, 1.027689311666403E+08, 2.158003734968567E+07,
2460672.500000000, A.D. 2024-Dec-28 00:00:00.0000, -4.844341647921739E+08, 9.319308707406618E+07, 2.280212307049264E+07,
2460679.500000000, A.D. 2025-Jan-04 00:00:00.0000, -4.856162663687748E+08, 8.357963120988831E+07, 2.401501734506306E+07,
2460686.500000000, A.D. 2025-Jan-11 00:00:00.0000, -4.866020259040899E+08, 7.393233502017519E+07, 2.521820166110799E+07,
2460693.500000000, A.D. 2025-Jan-18 00:00:00.0000, -4.873904327520468E+08, 6.425500585815388E+07, 2.641115787732242E+07,
2460700.500000000, A.D. 2025-Jan-25 00:00:00.0000, -4.879805435761427E+08, 5.455148640658815E+07, 2.759336841462443E+07,
2460707.500000000, A.D. 2025-Feb-01 00:00:00.0000, -4.883714836897925E+08, 4.482565394536847E+07, 2.876431645181207E+07,
2460714.500000000, A.D. 2025-Feb-08 00:00:00.0000, -4.885624484333919E+08, 3.508141948273597E+07, 2.992348612227394E+07,
2460721.500000000, A.D. 2025-Feb-15 00:00:00.0000, -4.885527045583832E+08, 2.532272672877848E+07, 3.107036270782110E+07,
$$EOE